[{"OBJECT_NAME":"STARLINK-34563","OBJECT_ID":"2025-142N","EPOCH":"2026-03-09T22:38:55.151232","MEAN_MOTION":14.98330472,"ECCENTRICITY":0.00027736,"INCLINATION":70.0014,"RA_OF_ASC_NODE":314.0213,"ARG_OF_PERICENTER":268.4296,"MEAN_ANOMALY":91.6545,"EPHEMERIS_TYPE":0,"CLASSIFICATION_TYPE":"U","NORAD_CAT_ID":64708,"ELEMENT_SET_NO":999,"REV_AT_EPOCH":3949,"BSTAR":0.00035972076,"MEAN_MOTION_DOT":4.202e-5,"MEAN_MOTION_DDOT":0},{"OBJECT_NAME":"PEGASUS DEB","OBJECT_ID":"1994-029AFJ","EPOCH":"2026-03-03T19:03:50.475744","MEAN_MOTION":14.72508431,"ECCENTRICITY":0.0165055,"INCLINATION":81.9829,"RA_OF_ASC_NODE":93.0554,"ARG_OF_PERICENTER":318.1487,"MEAN_ANOMALY":40.7194,"EPHEMERIS_TYPE":0,"CLASSIFICATION_TYPE":"U","NORAD_CAT_ID":39323,"ELEMENT_SET_NO":999,"REV_AT_EPOCH":72598,"BSTAR":0.0010497,"MEAN_MOTION_DOT":8.298e-5,"MEAN_MOTION_DDOT":0}]
